{
  "links" : {
    "next" : "https://api.nasa.gov/neo/rest/v1/feed?start_date=2009-04-23&end_date=2009-04-23&detailed=true&api_key=t0TVs3DtDT2H8Oy2Zy8m2eVrNsAVKAexjcZXUckd",
    "prev" : "https://api.nasa.gov/neo/rest/v1/feed?start_date=2009-04-21&end_date=2009-04-21&detailed=true&api_key=t0TVs3DtDT2H8Oy2Zy8m2eVrNsAVKAexjcZXUckd",
    "self" : "https://api.nasa.gov/neo/rest/v1/feed?start_date=2009-04-22&end_date=2009-04-22&detailed=true&api_key=t0TVs3DtDT2H8Oy2Zy8m2eVrNsAVKAexjcZXUckd"
  },
  "element_count" : 6,
  "near_earth_objects" : {
    "2009-04-22" : [ {
      "links" : {
        "self" : "https://api.nasa.gov/neo/rest/v1/neo/2016834?api_key=t0TVs3DtDT2H8Oy2Zy8m2eVrNsAVKAexjcZXUckd"
      },
      "neo_reference_id" : "2016834",
      "name" : "16834 (1997 WU22)",
      "nasa_jpl_url" : "http://ssd.jpl.nasa.gov/sbdb.cgi?sstr=2016834",
      "absolute_magnitude_h" : 15.7,
      "estimated_diameter" : {
        "kilometers" : {
          "estimated_diameter_min" : 1.9255507819,
          "estimated_diameter_max" : 4.3056624424
        },
        "meters" : {
          "estimated_diameter_min" : 1925.5507818793,
          "estimated_diameter_max" : 4305.66244241
        },
        "miles" : {
          "estimated_diameter_min" : 1.1964814149,
          "estimated_diameter_max" : 2.6754137775
        },
        "feet" : {
          "estimated_diameter_min" : 6317.424027221,
          "estimated_diameter_max" : 14126.1895675566
        }
      },
      "is_potentially_hazardous_asteroid" : false,
      "close_approach_data" : [ {
        "close_approach_date" : "2009-04-22",
        "epoch_date_close_approach" : 1240383600000,
        "relative_velocity" : {
          "kilometers_per_second" : "12.7109917106",
          "kilometers_per_hour" : "45759.5701582594",
          "miles_per_hour" : "28433.2173575029"
        },
        "miss_distance" : {
          "astronomical" : "0.2556331231",
          "lunar" : "99.4412841797",
          "kilometers" : "38242172",
          "miles" : "23762582"
        },
        "orbiting_body" : "Earth"
      } ],
      "orbital_data" : {
        "orbit_id" : "362",
        "orbit_determination_date" : "2017-04-11 18:55:58",
        "orbit_uncertainty" : "0",
        "minimum_orbit_intersection" : ".145493",
        "jupiter_tisserand_invariant" : "4.461",
        "epoch_osculation" : "2458000.5",
        "eccentricity" : ".4422085986197325",
        "semi_major_axis" : "1.467948955883845",
        "inclination" : "15.98928753082546",
        "ascending_node_longitude" : "260.8007207630953",
        "orbital_period" : "649.6281840143431",
        "perihelion_distance" : ".8188093052571507",
        "perihelion_argument" : "334.3071367799304",
        "aphelion_distance" : "2.11708860651054",
        "perihelion_time" : "2458204.910422577954",
        "mean_anomaly" : "246.7232765774849",
        "mean_motion" : ".5541631487959758",
        "equinox" : "J2000"
      }
    }, {
      "links" : {
        "self" : "https://api.nasa.gov/neo/rest/v1/neo/2168044?api_key=t0TVs3DtDT2H8Oy2Zy8m2eVrNsAVKAexjcZXUckd"
      },
      "neo_reference_id" : "2168044",
      "name" : "168044 (2005 SG)",
      "nasa_jpl_url" : "http://ssd.jpl.nasa.gov/sbdb.cgi?sstr=2168044",
      "absolute_magnitude_h" : 19.0,
      "estimated_diameter" : {
        "kilometers" : {
          "estimated_diameter_min" : 0.4212646106,
          "estimated_diameter_max" : 0.9419763057
        },
        "meters" : {
          "estimated_diameter_min" : 421.2646105562,
          "estimated_diameter_max" : 941.9763057186
        },
        "miles" : {
          "estimated_diameter_min" : 0.2617616123,
          "estimated_diameter_max" : 0.5853167591
        },
        "feet" : {
          "estimated_diameter_min" : 1382.1017848971,
          "estimated_diameter_max" : 3090.4735428537
        }
      },
      "is_potentially_hazardous_asteroid" : false,
      "close_approach_data" : [ {
        "close_approach_date" : "2009-04-22",
        "epoch_date_close_approach" : 1240383600000,
        "relative_velocity" : {
          "kilometers_per_second" : "22.6797166036",
          "kilometers_per_hour" : "81646.9797730813",
          "miles_per_hour" : "50732.2580706682"
        },
        "miss_distance" : {
          "astronomical" : "0.3081881662",
          "lunar" : "119.8852005005",
          "kilometers" : "46104296",
          "miles" : "28647880"
        },
        "orbiting_body" : "Earth"
      } ],
      "orbital_data" : {
        "orbit_id" : "75",
        "orbit_determination_date" : "2017-04-06 09:26:04",
        "orbit_uncertainty" : "1",
        "minimum_orbit_intersection" : ".202092",
        "jupiter_tisserand_invariant" : "5.988",
        "epoch_osculation" : "2458000.5",
        "eccentricity" : ".2831492006367385",
        "semi_major_axis" : ".9809965012062175",
        "inclination" : "34.83811179470096",
        "ascending_node_longitude" : "23.53229616486233",
        "orbital_period" : "354.8947824461515",
        "perihelion_distance" : ".7032281260622397",
        "perihelion_argument" : "205.5076675637825",
        "aphelion_distance" : "1.258764876350196",
        "perihelion_time" : "2458150.624312439671",
        "mean_anomaly" : "207.7161255914441",
        "mean_motion" : "1.014385158098579",
        "equinox" : "J2000"
      }
    }, {
      "links" : {
        "self" : "https://api.nasa.gov/neo/rest/v1/neo/2278381?api_key=t0TVs3DtDT2H8Oy2Zy8m2eVrNsAVKAexjcZXUckd"
      },
      "neo_reference_id" : "2278381",
      "name" : "278381 (2007 MR)",
      "nasa_jpl_url" : "http://ssd.jpl.nasa.gov/sbdb.cgi?sstr=2278381",
      "absolute_magnitude_h" : 21.9,
      "estimated_diameter" : {
        "kilometers" : {
          "estimated_diameter_min" : 0.1108038821,
          "estimated_diameter_max" : 0.2477650126
        },
        "meters" : {
          "estimated_diameter_min" : 110.8038821264,
          "estimated_diameter_max" : 247.7650126055
        },
        "miles" : {
          "estimated_diameter_min" : 0.068850319,
          "estimated_diameter_max" : 0.1539539936
        },
        "feet" : {
          "estimated_diameter_min" : 363.5298086356,
          "estimated_diameter_max" : 812.8773639568
        }
      },
      "is_potentially_hazardous_asteroid" : false,
      "close_approach_data" : [ {
        "close_approach_date" : "2009-04-22",
        "epoch_date_close_approach" : 1240383600000,
        "relative_velocity" : {
          "kilometers_per_second" : "7.34862898",
          "kilometers_per_hour" : "26455.0643278762",
          "miles_per_hour" : "16438.1481652851"
        },
        "miss_distance" : {
          "astronomical" : "0.2910946397",
          "lunar" : "113.2358093262",
          "kilometers" : "43547136",
          "miles" : "27058936"
        },
        "orbiting_body" : "Earth"
      } ],
      "orbital_data" : {
        "orbit_id" : "30",
        "orbit_determination_date" : "2017-04-06 09:24:22",
        "orbit_uncertainty" : "1",
        "minimum_orbit_intersection" : ".0696759",
        "jupiter_tisserand_invariant" : "5.938",
        "epoch_osculation" : "2458000.5",
        "eccentricity" : ".2588898700601893",
        "semi_major_axis" : "1.023169403909628",
        "inclination" : "5.827378853754642",
        "ascending_node_longitude" : "172.7794795885064",
        "orbital_period" : "378.0243228676466",
        "perihelion_distance" : ".7582812098819026",
        "perihelion_argument" : "217.6475340430069",
        "aphelion_distance" : "1.288057597937352",
        "perihelion_time" : "2458153.403791152482",
        "mean_anomaly" : "214.3867114228897",
        "mean_motion" : ".9523196742185362",
        "equinox" : "J2000"
      }
    } ]
  }
}